IRIDIUM 63              
1 25286U 98021B   25218.60963038  .00000292  00000+0  92693-4 0  9991
2 25286  86.3935  60.9668 0002293  90.6577 269.4883 14.36574700431087
IRIDIUM 69              
1 25319U 98026A   25218.88412696  .00000398  00000+0  11757-3 0  9990
2 25319  86.3928  73.9903 0001939 157.7639 202.3645 14.41007160430361
IRIDIUM 71              
1 25320U 98026B   25218.67609076  .00000304  00000+0  87967-4 0  9993
2 25320  86.3927  68.7593 0000418   9.3839 350.7369 14.41190521430864
IRIDIUM 73              
1 25344U 98032C   25218.93023476  .00000511  00000+0  12209-3 0  9995
2 25344  86.4409  25.2538 0002309 107.9275 252.2183 14.51760588437924
IRIDIUM 82              
1 25467U 98051A   25218.87083194  .00024143  00000+0  64569-3 0  9991
2 25467  86.3629  84.7744 0084129 103.3962 257.6684 15.34305511431725
